CCSDS_OMM_VERS = 2.0
CREATION_DATE  = 
ORIGINATOR     = 

OBJECT_NAME    = SL-3 R/B
OBJECT_ID      = 1982-079B
CENTER_NAME    = EARTH
REF_FRAME      = TEME
TIME_SYSTEM    = UTC
MEAN_ELEMENT_THEORY = SGP/SGP4

EPOCH          = 2026-02-28T19:22:30.713952
MEAN_MOTION    = 15.24637214
ECCENTRICITY   = .0024743
INCLINATION    = 81.1462
RA_OF_ASC_NODE = 203.5629
ARG_OF_PERICENTER = 194.5854
MEAN_ANOMALY   = 165.4669

EPHEMERIS_TYPE = 0
CLASSIFICATION_TYPE = U
NORAD_CAT_ID   = 13403
ELEMENT_SET_NO = 999
REV_AT_EPOCH   = 37634
BSTAR          = .31533E-3
MEAN_MOTION_DOT = .7877E-4
MEAN_MOTION_DDOT = 0

CCSDS_OMM_VERS = 2.0
CREATION_DATE  = 
ORIGINATOR     = 

OBJECT_NAME    = SL-14 R/B
OBJECT_ID      = 1982-092B
CENTER_NAME    = EARTH
REF_FRAME      = TEME
TIME_SYSTEM    = UTC
MEAN_ELEMENT_THEORY = SGP/SGP4

EPOCH          = 2026-02-28T18:28:32.435040
MEAN_MOTION    = 14.86655528
ECCENTRICITY   = .0019597
INCLINATION    = 82.5706
RA_OF_ASC_NODE = 149.7409
ARG_OF_PERICENTER = 334.8124
MEAN_ANOMALY   = 143.8144

EPHEMERIS_TYPE = 0
CLASSIFICATION_TYPE = U
NORAD_CAT_ID   = 13553
ELEMENT_SET_NO = 999
REV_AT_EPOCH   = 32760
BSTAR          = .54195E-4
MEAN_MOTION_DOT = .507E-5
MEAN_MOTION_DDOT = 0

CCSDS_OMM_VERS = 2.0
CREATION_DATE  = 
ORIGINATOR     = 

OBJECT_NAME    = SL-3 R/B
OBJECT_ID      = 1983-010B
CENTER_NAME    = EARTH
REF_FRAME      = TEME
TIME_SYSTEM    = UTC
MEAN_ELEMENT_THEORY = SGP/SGP4

EPOCH          = 2026-02-28T07:29:41.481024
MEAN_MOTION    = 15.45958553
ECCENTRICITY   = .0018613
INCLINATION    = 81.1048
RA_OF_ASC_NODE = 13.7386
ARG_OF_PERICENTER = 80.5783
MEAN_ANOMALY   = 279.7565

EPHEMERIS_TYPE = 0
CLASSIFICATION_TYPE = U
NORAD_CAT_ID   = 13819
ELEMENT_SET_NO = 999
REV_AT_EPOCH   = 35649
BSTAR          = .34792E-3
MEAN_MOTION_DOT = .17102E-3
MEAN_MOTION_DDOT = 0

CCSDS_OMM_VERS = 2.0
CREATION_DATE  = 
ORIGINATOR     = 

OBJECT_NAME    = SL-3 R/B
OBJECT_ID      = 1983-075B
CENTER_NAME    = EARTH
REF_FRAME      = TEME
TIME_SYSTEM    = UTC
MEAN_ELEMENT_THEORY = SGP/SGP4

EPOCH          = 2026-02-28T18:36:28.521504
MEAN_MOTION    = 15.38159037
ECCENTRICITY   = .0019625
INCLINATION    = 97.6134
RA_OF_ASC_NODE = 64.0170
ARG_OF_PERICENTER = 260.9634
MEAN_ANOMALY   = 98.9390

EPHEMERIS_TYPE = 0
CLASSIFICATION_TYPE = U
NORAD_CAT_ID   = 14208
ELEMENT_SET_NO = 999
REV_AT_EPOCH   = 32878
BSTAR          = .31666E-3
MEAN_MOTION_DOT = .11891E-3
MEAN_MOTION_DDOT = 0

CCSDS_OMM_VERS = 2.0
CREATION_DATE  = 
ORIGINATOR     = 

OBJECT_NAME    = COSMOS 1536
OBJECT_ID      = 1984-013A
CENTER_NAME    = EARTH
REF_FRAME      = TEME
TIME_SYSTEM    = UTC
MEAN_ELEMENT_THEORY = SGP/SGP4

EPOCH          = 2026-02-28T15:46:52.467744
MEAN_MOTION    = 15.23685160
ECCENTRICITY   = .0013022
INCLINATION    = 82.5446
RA_OF_ASC_NODE = 116.8285
ARG_OF_PERICENTER = 318.9663
MEAN_ANOMALY   = 41.0593

EPHEMERIS_TYPE = 0
CLASSIFICATION_TYPE = U
NORAD_CAT_ID   = 14699
ELEMENT_SET_NO = 999
REV_AT_EPOCH   = 27124
BSTAR          = .25008E-3
MEAN_MOTION_DOT = .6045E-4
MEAN_MOTION_DDOT = 0

CCSDS_OMM_VERS = 2.0
CREATION_DATE  = 
ORIGINATOR     = 

OBJECT_NAME    = SL-14 R/B
OBJECT_ID      = 1984-027B
CENTER_NAME    = EARTH
REF_FRAME      = TEME
TIME_SYSTEM    = UTC
MEAN_ELEMENT_THEORY = SGP/SGP4

EPOCH          = 2026-02-28T14:27:41.839776
MEAN_MOTION    = 14.85965170
ECCENTRICITY   = .001815
INCLINATION    = 82.5380
RA_OF_ASC_NODE = 253.5378
ARG_OF_PERICENTER = 8.5665
MEAN_ANOMALY   = 351.5858

EPHEMERIS_TYPE = 0
CLASSIFICATION_TYPE = U
NORAD_CAT_ID   = 14820
ELEMENT_SET_NO = 999
REV_AT_EPOCH   = 24628
BSTAR          = .5641E-4
MEAN_MOTION_DOT = .518E-5
MEAN_MOTION_DDOT = 0

CCSDS_OMM_VERS = 2.0
CREATION_DATE  = 
ORIGINATOR     = 

OBJECT_NAME    = SL-8 R/B
OBJECT_ID      = 1985-006B
CENTER_NAME    = EARTH
REF_FRAME      = TEME
TIME_SYSTEM    = UTC
MEAN_ELEMENT_THEORY = SGP/SGP4

EPOCH          = 2026-02-28T19:50:01.553568
MEAN_MOTION    = 14.37776963
ECCENTRICITY   = .0018816
INCLINATION    = 74.0436
RA_OF_ASC_NODE = 277.4591
ARG_OF_PERICENTER = 197.1767
MEAN_ANOMALY   = 250.1512

EPHEMERIS_TYPE = 0
CLASSIFICATION_TYPE = U
NORAD_CAT_ID   = 15483
ELEMENT_SET_NO = 999
REV_AT_EPOCH   = 15275
BSTAR          = .64509E-4
MEAN_MOTION_DOT = .168E-5
MEAN_MOTION_DDOT = 0

CCSDS_OMM_VERS = 2.0
CREATION_DATE  = 
ORIGINATOR     = 

OBJECT_NAME    = SL-12 R/B(2)
OBJECT_ID      = 1985-042D
CENTER_NAME    = EARTH
REF_FRAME      = TEME
TIME_SYSTEM    = UTC
MEAN_ELEMENT_THEORY = SGP/SGP4

EPOCH          = 2026-02-28T13:39:01.207008
MEAN_MOTION    = 14.21979573
ECCENTRICITY   = .0033699
INCLINATION    = 71.1068
RA_OF_ASC_NODE = 107.0002
ARG_OF_PERICENTER = 143.0341
MEAN_ANOMALY   = 18.0970

EPHEMERIS_TYPE = 0
CLASSIFICATION_TYPE = U
NORAD_CAT_ID   = 15772
ELEMENT_SET_NO = 999
REV_AT_EPOCH   = 11309
BSTAR          = .62423E-4
MEAN_MOTION_DOT = .91E-6
MEAN_MOTION_DDOT = 0

CCSDS_OMM_VERS = 2.0
CREATION_DATE  = 
ORIGINATOR     = 

OBJECT_NAME    = SL-14 R/B
OBJECT_ID      = 1985-069B
CENTER_NAME    = EARTH
REF_FRAME      = TEME
TIME_SYSTEM    = UTC
MEAN_ELEMENT_THEORY = SGP/SGP4

EPOCH          = 2026-02-28T20:37:29.559360
MEAN_MOTION    = 14.86420655
ECCENTRICITY   = .0017717
INCLINATION    = 82.5265
RA_OF_ASC_NODE = 33.2360
ARG_OF_PERICENTER = 217.9132
MEAN_ANOMALY   = 142.0838

EPHEMERIS_TYPE = 0
CLASSIFICATION_TYPE = U
NORAD_CAT_ID   = 15945
ELEMENT_SET_NO = 999
REV_AT_EPOCH   = 17152
BSTAR          = .65864E-4
MEAN_MOTION_DOT = .607E-5
MEAN_MOTION_DDOT = 0

CCSDS_OMM_VERS = 2.0
CREATION_DATE  = 
ORIGINATOR     = 

OBJECT_NAME    = SL-16 R/B
OBJECT_ID      = 1985-097B
CENTER_NAME    = EARTH
REF_FRAME      = TEME
TIME_SYSTEM    = UTC
MEAN_ELEMENT_THEORY = SGP/SGP4

EPOCH          = 2026-02-28T17:55:04.353024
MEAN_MOTION    = 14.16598980
ECCENTRICITY   = .000983
INCLINATION    = 71.0037
RA_OF_ASC_NODE = 159.3805
ARG_OF_PERICENTER = 269.9804
MEAN_ANOMALY   = 203.3024

EPHEMERIS_TYPE = 0
CLASSIFICATION_TYPE = U
NORAD_CAT_ID   = 16182
ELEMENT_SET_NO = 999
REV_AT_EPOCH   = 8596
BSTAR          = .85334E-4
MEAN_MOTION_DOT = .122E-5
MEAN_MOTION_DDOT = 0

CCSDS_OMM_VERS = 2.0
CREATION_DATE  = 
ORIGINATOR     = 

OBJECT_NAME    = SL-14 R/B
OBJECT_ID      = 1986-006B
CENTER_NAME    = EARTH
REF_FRAME      = TEME
TIME_SYSTEM    = UTC
MEAN_ELEMENT_THEORY = SGP/SGP4

EPOCH          = 2026-02-28T15:17:02.651136
MEAN_MOTION    = 14.86800983
ECCENTRICITY   = .0075287
INCLINATION    = 82.5236
RA_OF_ASC_NODE = 268.2596
ARG_OF_PERICENTER = 303.4094
MEAN_ANOMALY   = 55.9935

EPHEMERIS_TYPE = 0
CLASSIFICATION_TYPE = U
NORAD_CAT_ID   = 16496
ELEMENT_SET_NO = 999
REV_AT_EPOCH   = 14786
BSTAR          = .66784E-4
MEAN_MOTION_DOT = .652E-5
MEAN_MOTION_DDOT = 0

CCSDS_OMM_VERS = 2.0
CREATION_DATE  = 
ORIGINATOR     = 

OBJECT_NAME    = COSMOS 1743
OBJECT_ID      = 1986-034A
CENTER_NAME    = EARTH
REF_FRAME      = TEME
TIME_SYSTEM    = UTC
MEAN_ELEMENT_THEORY = SGP/SGP4

EPOCH          = 2026-02-28T12:32:51.317088
MEAN_MOTION    = 15.57808120
ECCENTRICITY   = .0002738
INCLINATION    = 82.5305
RA_OF_ASC_NODE = 83.4477
ARG_OF_PERICENTER = 349.1088
MEAN_ANOMALY   = 11.0108

EPHEMERIS_TYPE = 0
CLASSIFICATION_TYPE = U
NORAD_CAT_ID   = 16719
ELEMENT_SET_NO = 999
REV_AT_EPOCH   = 17882
BSTAR          = .44442E-3
MEAN_MOTION_DOT = .3316E-3
MEAN_MOTION_DDOT = 0

