SL-3 R/B                
1 13403U 82079B   26059.80729993  .00007877  00000+0  31533-3 0  9992
2 13403  81.1462 203.5629 0024743 194.5854 165.4669 15.24637214376343
SL-14 R/B               
1 13553U 82092B   26059.76981985  .00000507  00000+0  54195-4 0  9992
2 13553  82.5706 149.7409 0019597 334.8124 143.8144 14.86655528327600
SL-3 R/B                
1 13819U 83010B   26059.31228566  .00017102  00000+0  34792-3 0  9997
2 13819  81.1048  13.7386 0018613  80.5783 279.7565 15.45958553356492
SL-3 R/B                
1 14208U 83075B   26059.77533011  .00011891  00000+0  31666-3 0  9991
2 14208  97.6134  64.0170 0019625 260.9634  98.9390 15.38159037328786
COSMOS 1536             
1 14699U 84013A   26059.65755171  .00006045  00000+0  25008-3 0  9996
2 14699  82.5446 116.8285 0013022 318.9663  41.0593 15.23685160271240
SL-14 R/B               
1 14820U 84027B   26059.60256759  .00000518  00000+0  56410-4 0  9991
2 14820  82.5380 253.5378 0018150   8.5665 351.5858 14.85965170246284
SL-8 R/B                
1 15483U 85006B   26059.82640687  .00000168  00000+0  64509-4 0  9995
2 15483  74.0436 277.4591 0018816 197.1767 250.1512 14.37776963152753
SL-12 R/B(2)            
1 15772U 85042D   26059.56876397  .00000091  00000+0  62423-4 0  9994
2 15772  71.1068 107.0002 0033699 143.0341  18.0970 14.21979573113090
SL-14 R/B               
1 15945U 85069B   26059.85936990  .00000607  00000+0  65864-4 0  9998
2 15945  82.5265  33.2360 0017717 217.9132 142.0838 14.86420655171522
SL-16 R/B               
1 16182U 85097B   26059.74657816  .00000122  00000+0  85334-4 0  9994
2 16182  71.0037 159.3805 0009830 269.9804 203.3024 14.16598980 85960
SL-14 R/B               
1 16496U 86006B   26059.63683624  .00000652  00000+0  66784-4 0  9993
2 16496  82.5236 268.2596 0075287 303.4094  55.9935 14.86800983147863
COSMOS 1743             
1 16719U 86034A   26059.52281617  .00033160  00000+0  44442-3 0  9992
2 16719  82.5305  83.4477 0002738 349.1088  11.0108 15.57808120178829
